NORAD_CAT_ID,OBJECT_NAME,OBJECT_TYPE,EPOCH,MEAN_MOTION,ECCENTRICITY,INCLINATION,RA_OF_ASC_NODE,ARG_OF_PERICENTER,MEAN_ANOMALY,BSTAR,MEAN_MOTION_DOT,MEAN_MOTION_DDOT,TLE_LINE0,TLE_LINE1,TLE_LINE2,SEMIMAJOR_AXIS,PERIOD,APOGEE,PERIGEE,DECAYED
54808.0,STARLINK-5413,PAYLOAD,2024-05-22 03:37:21,15.08850421,0.0001143,53.2162,81.6087,105.1821,254.9297,0.00039602,6.022e-05,0.0,0 STARLINK-5413,1 54808U 22175BC  24143.15093872  .00006022  00000-0  39602-3 0  9994,2 54808  53.2162  81.6087 0001143 105.1821 254.9297 15.08850421 79067,6917.849,95.437,540.504,538.923,0.0
54808.0,STARLINK-5413,PAYLOAD,2024-05-22 19:31:12,15.08846486,0.000145,53.2175,78.6381,75.6456,284.4697,0.00033812,5.098e-05,0.0,0 STARLINK-5413,1 54808U 22175BC  24143.81334054  .00005098  00000-0  33812-3 0  9996,2 54808  53.2175  78.6381 0001450  75.6456 284.4697 15.08846486 79169,6917.861,95.437,540.729,538.722,0.0
54808.0,STARLINK-5413,PAYLOAD,2024-05-23 01:52:45,15.08841581,0.0001593,53.2178,77.4428,69.1905,290.9257,0.00016989,2.417e-05,0.0,0 STARLINK-5413,1 54808U 22175BC  24144.07830331  .00002417  00000-0  16989-3 0  9992,2 54808  53.2178  77.4428 0001593  69.1905 290.9257 15.08841581 79206,6917.876,95.437,540.843,538.639,0.0
54808.0,STARLINK-5413,PAYLOAD,2024-05-23 05:03:31,15.0884188,0.0001589,53.2179,76.8481,68.6917,291.4245,0.00017958,2.571e-05,0.0,0 STARLINK-5413,1 54808U 22175BC  24144.21078304  .00002571  00000-0  17958-3 0  9990,2 54808  53.2179  76.8481 0001589  68.6917 291.4245 15.08841880 81388,6917.875,95.437,540.839,538.64,0.0
54808.0,STARLINK-5413,PAYLOAD,2024-05-24 04:54:18,15.08846125,0.0001335,53.2167,72.3855,92.6847,267.4298,2.723e-05,1.46e-06,0.0,0 STARLINK-5413,1 54808U 22175BC  24145.20438018  .00000146  00000-0  27230-4 0  9993,2 54808  53.2167  72.3855 0001335  92.6847 267.4298 15.08846125 79373,6917.862,95.437,540.65,538.803,0.0
54808.0,STARLINK-5413,PAYLOAD,2024-05-24 22:23:33,15.0883759,0.000156,53.2175,69.1142,109.718,250.398,8.6705e-05,1.092e-05,0.0,0 STARLINK-5413,1 54808U 22175BC  24145.93302424  .00001092  00000-0  86705-4 0  9997,2 54808  53.2175  69.1142 0001560 109.7180 250.3980 15.08837590 81643,6917.888,95.438,540.832,538.674,0.0
54808.0,STARLINK-5413,PAYLOAD,2024-05-25 04:45:05,15.08847038,0.000125,53.2172,67.9304,86.4806,273.6329,0.00013873,1.921e-05,0.0,0 STARLINK-5413,1 54808U 22175BC  24146.19798030  .00001921  00000-0  13873-3 0  9994,2 54808  53.2172  67.9304 0001250  86.4806 273.6329 15.08847038 81685,6917.859,95.437,540.589,538.859,0.0
54808.0,STARLINK-5413,PAYLOAD,2024-05-25 19:03:34,15.08839178,0.0001339,53.2173,65.2524,102.1637,257.9505,3.0325e-05,1.95e-06,0.0,0 STARLINK-5413,1 54808U 22175BC  24146.79414745  .00000195  00000-0  30325-4 0  9992,2 54808  53.2173  65.2524 0001339 102.1637 257.9505 15.08839178 79614,6917.883,95.438,540.674,538.822,0.0
54808.0,STARLINK-5413,PAYLOAD,2024-05-26 01:25:07,15.08834293,0.0001464,53.2187,64.0726,111.2797,248.8351,1.3345e-05,-7.6e-07,0.0,0 STARLINK-5413,1 54808U 22175BC  24147.05911263 -.00000076  00000-0  13345-4 0  9991,2 54808  53.2187  64.0726 0001464 111.2797 248.8351 15.08834293 79652,6917.898,95.438,540.776,538.75,0.0
54808.0,STARLINK-5413,PAYLOAD,2024-05-26 22:05:08,15.08831691,0.0001172,53.2193,60.2059,83.0415,277.0711,0.0001608,2.272e-05,0.0,0 STARLINK-5413,1 54808U 22175BC  24147.92023193  .00002272  00000-0  16080-3 0  9990,2 54808  53.2193  60.2059 0001172  83.0415 277.0711 15.08831691 81943,6917.906,95.438,540.582,538.96,0.0
54808.0,STARLINK-5413,PAYLOAD,2024-05-27 01:16:07,15.08648283,0.0002012,53.2198,59.6148,84.214,275.9081,-0.0014239,-0.0002276,0.0,0 STARLINK-5413,1 54808U 22175BC  24148.05286542 -.00022760  00000-0 -14239-2 0  9993,2 54808  53.2198  59.6148 0002012  84.2140 275.9081 15.08648283 79803,6918.466,95.45,541.723,538.939,0.0
54808.0,STARLINK-5413,PAYLOAD,2024-05-27 07:37:26,15.088425,0.0001142,53.2193,58.4241,90.3627,269.7496,0.00012443,1.693e-05,0.0,0 STARLINK-5413,1 54808U 22175BC  24148.31766734  .00001693  00000-0  12443-3 0  9994,2 54808  53.2193  58.4241 0001142  90.3627 269.7496 15.08842500 79843,6917.873,95.437,540.528,538.948,0.0
54808.0,STARLINK-5413,PAYLOAD,2024-05-27 18:45:09,15.08831368,0.0001287,53.2198,56.3321,94.6416,265.4723,5.0382e-05,5.14e-06,0.0,0 STARLINK-5413,1 54808U 22175BC  24148.78135467  .00000514  00000-0  50382-4 0  9994,2 54808  53.2198  56.3321 0001287  94.6416 265.4723 15.08831368 79911,6917.907,95.438,540.662,538.881,0.0
54808.0,STARLINK-5413,PAYLOAD,2024-05-27 21:55:55,15.08829857,0.0001204,53.2199,55.7401,84.7829,275.33,6.0001e-05,6.67e-06,0.0,0 STARLINK-5413,1 54808U 22175BC  24148.91383616  .00000667  00000-0  60001-4 0  9998,2 54808  53.2199  55.7401 0001204  84.7829 275.3300 15.08829857 82095,6917.911,95.438,540.609,538.943,0.0
54808.0,STARLINK-5413,PAYLOAD,2024-05-28 10:39:00,15.08837729,0.0001292,53.2191,53.3575,89.2724,270.8416,5.6382e-05,6.1e-06,0.0,0 STARLINK-5413,1 54808U 22175BC  24149.44375193  .00000610  00000-0  56382-4 0  9993,2 54808  53.2191  53.3575 0001292  89.2724 270.8416 15.08837729 80019,6917.887,95.438,540.646,538.859,0.0
54808.0,STARLINK-5413,PAYLOAD,2024-05-28 21:46:42,15.08837366,0.0001304,53.2191,51.276,83.5333,276.5807,6.5089e-05,7.48e-06,0.0,0 STARLINK-5413,1 54808U 22175BC  24149.90743256  .00000748  00000-0  65089-4 0  9999,2 54808  53.2191  51.2760 0001304  83.5333 276.5807 15.08837366 82240,6917.888,95.438,540.656,538.851,0.0
54808.0,STARLINK-5413,PAYLOAD,2024-05-29 00:57:28,15.08838393,0.0001352,53.2191,50.6811,84.1487,275.966,7.1571e-05,8.51e-06,0.0,0 STARLINK-5413,1 54808U 22175BC  24150.03991202  .00000851  00000-0  71571-4 0  9999,2 54808  53.2191  50.6811 0001352  84.1487 275.9660 15.08838393 82263,6917.885,95.438,540.686,538.815,0.0
54808.0,STARLINK-5413,PAYLOAD,2024-05-29 21:37:29,15.08842114,0.0001378,53.219,46.8154,79.8129,280.3018,9.1337e-05,1.166e-05,0.0,0 STARLINK-5413,1 54808U 22175BC  24150.90103017  .00001166  00000-0  91337-4 0  9996,2 54808  53.2190  46.8154 0001378  79.8129 280.3018 15.08842114 82398,6917.874,95.437,540.692,538.786,0.0
54808.0,STARLINK-5413,PAYLOAD,2024-05-30 02:23:38,15.08845302,0.0001433,53.2192,45.9223,79.6211,280.4943,0.00011638,1.565e-05,0.0,0 STARLINK-5413,1 54808U 22175BC  24151.09974738  .00001565  00000-0  11638-3 0  9991,2 54808  53.2192  45.9223 0001433  79.6211 280.4943 15.08845302 80263,6917.864,95.437,540.721,538.738,0.0
54808.0,STARLINK-5413,PAYLOAD,2024-05-30 21:28:15,15.0884535,0.0001556,53.2197,42.3512,77.3517,282.7649,8.5117e-05,1.067e-05,0.0,0 STARLINK-5413,1 54808U 22175BC  24151.89462757  .00001067  00000-0  85117-4 0  9993,2 54808  53.2197  42.3512 0001556  77.3517 282.7649 15.08845350 82544,6917.864,95.437,540.805,538.653,0.0
54808.0,STARLINK-5413,PAYLOAD,2024-05-31 02:14:25,15.08845345,0.0001558,53.2197,41.46,78.6911,281.4256,8.0472e-05,9.93e-06,0.0,0 STARLINK-5413,1 54808U 22175BC  24152.09334720  .00000993  00000-0  80472-4 0  9990,2 54808  53.2197  41.4600 0001558  78.6911 281.4256 15.08845345 82573,6917.864,95.437,540.807,538.651,0.0
54808.0,STARLINK-5413,PAYLOAD,2024-05-31 19:43:39,15.0883763,0.0001716,53.22,38.1914,102.1573,257.9611,3.323e-05,2.41e-06,0.0,0 STARLINK-5413,1 54808U 22175BC  24152.82199042  .00000241  00000-0  33230-4 0  9993,2 54808  53.2200  38.1914 0001716 102.1573 257.9611 15.08837630 80526,6917.888,95.438,540.94,538.566,0.0
54808.0,STARLINK-5413,PAYLOAD,2024-05-31 22:54:26,15.08831838,0.0001414,53.2181,37.5997,86.692,273.4234,1.0127e-05,-1.27e-06,0.0,0 STARLINK-5413,1 54808U 22175BC  24152.95447559 -.00000127  00000-0  10127-4 0  9990,2 54808  53.2181  37.5997 0001414  86.6920 273.4234 15.08831838 82705,6917.905,95.438,540.749,538.792,0.0
54808.0,STARLINK-5413,PAYLOAD,2024-06-01 02:05:12,15.08838495,0.0001501,53.2194,37.0036,92.1521,267.9643,-3.2e-05,-7.97e-06,0.0,0 STARLINK-5413,1 54808U 22175BC  24153.08695280 -.00000797  00000-0 -32000-4 0  9999,2 54808  53.2194  37.0036 0001501  92.1521 267.9643 15.08838495 82724,6917.885,95.438,540.788,538.712,0.0
54808.0,STARLINK-5413,PAYLOAD,2024-06-01 21:09:50,15.08837531,0.0001348,53.2187,33.4353,94.442,265.6727,8.0517e-05,9.94e-06,0.0,0 STARLINK-5413,1 54808U 22175BC  24153.88183074  .00000994  00000-0  80517-4 0  9993,2 54808  53.2187  33.4353 0001348  94.4420 265.6727 15.08837531 80681,6917.888,95.438,540.685,538.82,0.0
54808.0,STARLINK-5413,PAYLOAD,2024-06-01 22:45:13,15.08840891,0.0001501,53.2182,33.1375,95.4028,264.7135,7.9624e-05,9.79e-06,0.0,0 STARLINK-5413,1 54808U 22175BC  24153.94806929  .00000979  00000-0  79624-4 0  9991,2 54808  53.2182  33.1375 0001501  95.4028 264.7135 15.08840891 82850,6917.878,95.437,540.781,538.704,0.0
54808.0,STARLINK-5413,PAYLOAD,2024-06-02 22:36:00,15.08832339,0.000143,53.2189,28.6771,91.2225,268.8931,0.00012384,1.683e-05,0.0,0 STARLINK-5413,1 54808U 22175BC  24154.94167608  .00001683  00000-0  12384-3 0  9998,2 54808  53.2189  28.6771 0001430  91.2225 268.8931 15.08832339 83005,6917.904,95.438,540.758,538.78,0.0
54808.0,STARLINK-5413,PAYLOAD,2024-06-03 01:46:47,15.08834232,0.0001302,53.2186,28.0819,87.445,272.6692,7.4316e-05,8.95e-06,0.0,0 STARLINK-5413,1 54808U 22175BC  24155.07415648  .00000895  00000-0  74316-4 0  9991,2 54808  53.2186  28.0819 0001302  87.4450 272.6692 15.08834232 80866,6917.898,95.438,540.664,538.862,0.0
54808.0,STARLINK-5413,PAYLOAD,2024-06-03 08:08:19,15.08843803,0.0001442,53.2203,26.8939,91.7447,268.3711,0.00018736,2.695e-05,0.0,0 STARLINK-5413,1 54808U 22175BC  24155.33910887  .00002695  00000-0  18736-3 0  9998,2 54808  53.2203  26.8939 0001442  91.7447 268.3711 15.08843803 80907,6917.869,95.437,540.731,538.736,0.0
54808.0,STARLINK-5413,PAYLOAD,2024-06-03 22:26:47,15.08835472,0.0001609,53.2211,24.221,99.3745,260.7429,0.00016854,2.395e-05,0.0,0 STARLINK-5413,1 54808U 22175BC  24155.93527505  .00002395  00000-0  16854-3 0  9991,2 54808  53.2211  24.2210 0001609  99.3745 260.7429 15.08835472 83155,6917.894,95.438,540.872,538.646,0.0
